OBJECT_NAME,OBJECT_ID,EPOCH,MEAN_MOTION,ECCENTRICITY,INCLINATION,RA_OF_ASC_NODE,ARG_OF_PERICENTER,MEAN_ANOMALY,EPHEMERIS_TYPE,CLASSIFICATION_TYPE,NORAD_CAT_ID,ELEMENT_SET_NO,REV_AT_EPOCH,BSTAR,MEAN_MOTION_DOT,MEAN_MOTION_DDOT
ONEWEB-0346,2021-083AC,2026-06-20T04:19:45.966432,13.18685828,.00022371,87.9162,334.8616,79.0390,281.0993,0,U,49212,999,23037,.17291196E-3,.81E-6,0
ONEWEB-0348,2021-083AD,2026-06-20T07:05:12.908256,13.20771257,.00024753,87.9198,273.8210,94.4112,265.7305,0,U,49213,999,23722,.16475355E-3,.8E-6,0
ONEWEB-0350,2021-083AE,2026-06-20T04:13:55.725024,13.12942796,.00021197,87.8961,319.6313,99.0573,261.0796,0,U,49214,999,23132,.10074082E-2,.378E-5,0
ONEWEB-0351,2021-083AF,2026-06-20T06:55:18.594624,13.20770728,.0002181,87.9198,273.8212,124.6631,235.4708,0,U,49215,999,23718,.14630713E-3,.72E-6,0
ONEWEB-0352,2021-083AG,2026-06-20T03:33:35.710272,13.13470607,.00017435,87.8955,319.6426,110.7918,249.3398,0,U,49216,999,23141,-.37879098E-3,-.126E-5,0
ONEWEB-0354,2021-083AH,2026-06-20T05:45:12.484512,13.20773266,.000243,87.9198,273.8299,98.8628,261.2781,0,U,49217,999,23721,.26984488E-3,.123E-5,0
ONEWEB-0355,2021-083AJ,2026-06-20T04:15:14.716224,13.13469558,.00019283,87.8954,319.6378,106.2694,253.8648,0,U,49218,999,23129,.78517897E-3,.299E-5,0
ONEWEB-0357,2021-083AK,2026-06-20T05:40:21.650016,13.20772881,.00020072,87.9199,273.8250,106.5183,253.6171,0,U,49219,999,23721,.20196659E-3,.95E-6,0
JILIN-1 GAOFEN 2D,2021-086A,2026-06-20T06:33:22.567968,15.10662307,.00344826,97.6486,293.9944,132.6679,227.7465,0,U,49256,999,26118,.23868531E-3,.3938E-4,0
SHIYAN-10 01 (SY-10 01),2021-087A,2026-06-08T10:16:33.612384,2.00652330,.69307854,63.1127,221.0467,269.8654,17.6440,0,U,49258,999,3435,0,.79E-5,0
LANDSAT 9,2021-088A,2026-06-20T03:35:02.898240,14.57098814,.00013292,98.2279,241.2909,85.0666,275.0684,0,U,49260,999,25143,.62958764E-4,.238E-5,0
CS1,2021-088B,2026-06-20T03:24:59.931648,15.34783847,.00132239,97.3754,234.4183,73.9034,286.3664,0,U,49261,999,26087,.38332835E-3,.12889E-3,0
CS2,2021-088C,2026-06-20T03:40:31.799712,15.36450784,.00107721,97.3808,236.8773,77.8062,282.4388,0,U,49262,999,26097,.38111384E-3,.13504E-3,0
CUTE,2021-088D,2026-06-20T06:20:56.163552,15.93975753,.00076191,97.4181,270.8579,223.6443,136.4231,0,U,49263,999,26304,.37886547E-3,.137923E-2,.9390924E-5
CUPID,2021-088E,2026-06-20T03:25:15.970944,15.26039156,.00132375,97.3862,232.3027,59.4596,300.7947,0,U,49264,999,26063,.24282065E-3,.6193E-4,0
ONEWEB-0332,2021-090A,2026-06-20T06:19:12.759168,13.14501746,.00017022,87.8968,289.0957,102.0727,258.0594,0,U,49279,999,22798,-.49876087E-4,-.6E-7,0
ONEWEB-0347,2021-090B,2026-06-20T07:14:54.801024,13.20771684,.00017687,87.9195,273.8198,101.5168,258.6164,0,U,49280,999,23145,.26797562E-3,.122E-5,0
ONEWEB-0349,2021-090C,2026-06-20T04:22:47.457408,13.20772453,.00020279,87.9197,273.8442,101.0836,259.0526,0,U,49281,999,23022,.71328424E-4,.42E-6,0
ONEWEB-0353,2021-090D,2026-06-19T20:59:45.471840,13.14502814,.00016547,87.8969,289.1688,101.5886,258.5429,0,U,49282,999,22793,.69469346E-4,.39E-6,0
ONEWEB-0356,2021-090E,2026-06-19T19:14:54.133152,13.20773323,.00019821,87.9196,273.9133,77.1821,282.9533,0,U,49283,999,23017,.40274623E-4,.29E-6,0
ONEWEB-0358,2021-090F,2026-06-20T06:58:39.739872,13.20237720,.00021021,87.9199,273.8221,95.1699,264.9674,0,U,49284,999,23096,.15392389E-3,.75E-6,0
ONEWEB-0359,2021-090G,2026-06-20T06:48:13.774464,13.20773440,.0002271,87.9197,273.8173,98.3142,261.8249,0,U,49285,999,23094,.91861839E-4,.5E-6,0
ONEWEB-0360,2021-090H,2026-06-20T06:33:40.678272,13.20769447,.00020862,87.9196,273.8255,102.7407,257.3960,0,U,49286,999,23025,-.63971277E-4,-.13E-6,0
ONEWEB-0361,2021-090J,2026-06-19T19:12:29.313792,13.20771204,.00021003,87.9197,273.9181,98.0775,262.0597,0,U,49287,999,23064,.6546555E-4,.4E-6,0
ONEWEB-0362,2021-090K,2026-06-20T06:51:25.976448,13.19724250,.00019605,87.9173,304.3604,107.1554,252.9794,0,U,49288,999,22732,-.5786387E-4,-.1E-6,0
ONEWEB-0363,2021-090L,2026-06-20T06:28:50.618784,13.20770440,.00019973,87.9198,273.8249,90.8704,269.2658,0,U,49289,999,23071,-.64883859E-4,-.13E-6,0
ONEWEB-0364,2021-090M,2026-06-20T07:24:36.209088,13.20772641,.00020432,87.9197,273.8252,100.9236,259.2127,0,U,49290,999,23185,-.14959018E-3,-.48E-6,0
ONEWEB-0365,2021-090N,2026-06-20T07:05:05.044128,13.19724881,.00018163,87.9182,304.3470,102.6753,257.4583,0,U,49291,999,22683,.42301118E-4,.3E-6,0
ONEWEB-0366,2021-090P,2026-06-20T06:03:14.358528,13.14502584,.00019638,87.8967,289.0954,100.1458,259.9894,0,U,49292,999,22796,.44813456E-3,.179E-5,0
ONEWEB-0367,2021-090Q,2026-06-20T06:27:38.885184,13.20771183,.00019428,87.9198,273.8262,105.8356,254.2991,0,U,49293,999,23023,-.5014384E-4,-.7E-7,0
